{
    "links": {
        "self": "http://www.neowsapp.com/rest/v1/neo/3563861?api_key=iIulBulltgU6a56xZRHN4H3l9WmuAYTsLGpBGhQ2"
    },
    "id": "3563861",
    "neo_reference_id": "3563861",
    "name": "(2011 HH1)",
    "designation": "2011 HH1",
    "nasa_jpl_url": "http://ssd.jpl.nasa.gov/sbdb.cgi?sstr=3563861",
    "absolute_magnitude_h": 21.7,
    "estimated_diameter": {
        "kilometers": {
            "estimated_diameter_min": 0.1214940408,
            "estimated_diameter_max": 0.2716689341
        },
        "meters": {
            "estimated_diameter_min": 121.4940407996,
            "estimated_diameter_max": 271.6689340891
        },
        "miles": {
            "estimated_diameter_min": 0.0754928736,
            "estimated_diameter_max": 0.1688071972
        },
        "feet": {
            "estimated_diameter_min": 398.6025088171,
            "estimated_diameter_max": 891.3023057169
        }
    },
    "is_potentially_hazardous_asteroid": false,
    "close_approach_data": [
        {
            "close_approach_date": "2011-05-08",
            "close_approach_date_full": "2011-May-08 22:48",
            "epoch_date_close_approach": 1304894880000,
            "relative_velocity": {
                "kilometers_per_second": "17.2688688945",
                "kilometers_per_hour": "62167.9280200315",
                "miles_per_hour": "38628.7328300024"
            },
            "miss_distance": {
                "astronomical": "0.083621767",
                "lunar": "32.528867363",
                "kilometers": "12509638.22883629",
                "miles": "7773128.750629202"
            },
            "orbiting_body": "Earth"
        }
    ],
    "orbital_data": {
        "orbit_id": "11",
        "orbit_determination_date": "2017-04-06 08:53:39",
        "first_observation_date": "2011-04-24",
        "last_observation_date": "2011-05-07",
        "data_arc_in_days": 13,
        "observations_used": 47,
        "orbit_uncertainty": "8",
        "minimum_orbit_intersection": ".0812775",
        "jupiter_tisserand_invariant": "3.689",
        "epoch_osculation": "2455677.5",
        "eccentricity": ".5998873018909633",
        "semi_major_axis": "1.898414411062175",
        "inclination": "11.21203523430111",
        "ascending_node_longitude": "71.81696904269113",
        "orbital_period": "955.3993904491251",
        "perihelion_distance": ".7595797121391649",
        "perihelion_argument": "223.3887634272233",
        "aphelion_distance": "3.037249109985185",
        "perihelion_time": "2455732.900865142708",
        "mean_anomaly": "339.1246345237888",
        "mean_motion": ".3768057668853724",
        "equinox": "J2000",
        "orbit_class": {
            "orbit_class_type": "APO",
            "orbit_class_description": "Near-Earth asteroid orbits which cross the Earth’s orbit similar to that of 1862 Apollo",
            "orbit_class_range": "a (semi-major axis) > 1.0 AU; q (perihelion) < 1.017 AU"
        }
    },
    "is_sentry_object": false
}